BEIDOU-2 IGSO-1 (C06)   
1 36828U 10036A   26026.30659084 -.00000089  00000+0  00000+0 0  9994
2 36828  54.2936 164.2457 0052795 216.8520 322.1006  1.00262598 56670
BEIDOU-2 G4 (C04)       
1 37210U 10057A   26027.35064730 -.00000107  00000+0  00000+0 0  9998
2 37210   3.2950  69.7528 0010229 202.5793 140.4812  1.00269544 55879
BEIDOU-2 IGSO-2 (C07)   
1 37256U 10068A   26025.59281764 -.00000181  00000+0  00000+0 0  9994
2 37256  47.8017 273.6037 0047502 214.4165 318.6351  1.00271655 55364
BEIDOU-2 IGSO-3 (C08)   
1 37384U 11013A   26024.72978258 -.00000153  00000+0  00000+0 0  9991
2 37384  62.2038  41.5043 0033551 189.7658 261.3507  1.00259731 54221
BEIDOU-2 IGSO-4 (C09)   
1 37763U 11038A   26023.87641058  .00000007  00000+0  00000+0 0  9996
2 37763  54.5902 166.9718 0151514 230.3527 136.4289  1.00273505 53206
BEIDOU-2 IGSO-5 (C10)   
1 37948U 11073A   26027.35429936 -.00000113  00000+0  00000+0 0  9995
2 37948  47.9332 273.2914 0108736 221.5166 214.2515  1.00280332 51721
BEIDOU-2 G5 (C05)       
1 38091U 12008A   26027.15290750  .00000065  00000+0  00000+0 0  9997
2 38091   3.2197  70.5227 0014189 240.2326 289.4013  1.00270451 50956
BEIDOU-2 M3 (C11)       
1 38250U 12018A   26026.96875322 -.00000067  00000+0  00000+0 0  9990
2 38250  55.8797 309.6373 0022922 278.0483  81.7217  1.86229967 93313
BEIDOU-2 M4 (C12)       
1 38251U 12018B   26026.90086269 -.00000066  00000+0  00000+0 0  9998
2 38251  55.7807 308.8649 0014147 283.6184  76.2551  1.86229688 93312
BEIDOU-2 M6 (C14)       
1 38775U 12050B   26027.14838693 -.00000030  00000+0  00000+0 0  9999
2 38775  56.4181  67.5595 0012802 340.5809  19.4341  1.86230764 90688
BEIDOU-2 G6 (C02)       
1 38953U 12059A   26027.08660713 -.00000167  00000+0  00000+0 0  9996
2 38953   4.0626  75.0506 0009652 294.4604 231.9749  1.00269262 48490
BEIDOU-3S IGSO-1S (C31) 
1 40549U 15019A   26026.67620966 -.00000180  00000+0  00000+0 0  9994
2 40549  49.4623 297.1726 0035963 192.4235 335.8881  1.00282665 39657
BEIDOU-3S M2S (C58)     
1 40748U 15037A   26027.10548628 -.00000063  00000+0  00000+0 0  9998
2 40748  54.9967 306.9062 0010523 275.9063  84.0071  1.86231891 71494
BEIDOU-3S M1S (C57)     
1 40749U 15037B   26026.79314263 -.00000063  00000+0  00000+0 0  9999
2 40749  54.9929 306.9051 0004165  15.6760 344.3705  1.86253876 71492
BEIDOU-3S IGSO-2S (C56) 
1 40938U 15053A   26021.62882934 -.00000080  00000+0  00000+0 0  9998
2 40938  49.4465 260.5301 0060846 187.7410 353.8407  1.00261395 37880
BEIDOU-2 IGSO-6 (C13)   
1 41434U 16021A   26020.02719801 -.00000117  00000+0  00000+0 0  9992
2 41434  60.0199  39.5122 0060780 231.8072 312.6832  1.00286453 35999
BEIDOU-2 G7 (C03)       
1 41586U 16037A   26027.02056676 -.00000344  00000+0  00000+0 0  9990
2 41586   1.8652  68.2285 0005563   4.4642 171.5182  1.00274919  5472
BEIDOU-3 M1 (C19)       
1 43001U 17069A   26024.76603017 -.00000024  00000+0  00000+0 0  9990
2 43001  56.5636  67.8112 0011204 304.5719  55.3899  1.86230998 55930
BEIDOU-3 M2 (C20)       
1 43002U 17069B   26023.09359471 -.00000015  00000+0  00000+0 0  9998
2 43002  56.5616  67.9026 0007954 325.6651  34.3576  1.86231044 55897
BEIDOU-3 M7 (C27)       
1 43107U 18003A   26026.59471370 -.00000064  00000+0  00000+0 0  9998
2 43107  54.4550 307.2549 0003703  65.7802 294.2920  1.86232401 54713
BEIDOU-3 M8 (C28)       
1 43108U 18003B   26027.07693488 -.00000064  00000+0  00000+0 0  9999
2 43108  54.4472 307.2206 0003887 286.9614  73.0288  1.86230872 54730
BEIDOU-3 M4 (C22)       
1 43207U 18018A   26026.98210215 -.00000030  00000+0  00000+0 0  9990
2 43207  56.5246  67.8068 0005475 351.0814   8.9726  1.86230812 54118
BEIDOU-3 M3 (C21)       
1 43208U 18018B   26027.04857213 -.00000030  00000+0  00000+0 0  9994
2 43208  56.5244  67.8085 0008642 315.6933  44.3013  1.86230977 54118
BEIDOU-3 M9 (C29)       
1 43245U 18029A   26027.26527274 -.00000061  00000+0  00000+0 0  9996
2 43245  54.3223 304.8798 0001044 324.8597  35.1691  1.86227983 53273
BEIDOU-3 M10 (C30)      
1 43246U 18029B   26026.66335495 -.00000060  00000+0  00000+0 0  9991
2 43246  54.3206 304.9278 0004793  11.4640 348.5834  1.86229067 53243
BEIDOU-2 IGSO-7 (C16)   
1 43539U 18057A   26025.80794370 -.00000091  00000+0  00000+0 0  9997
2 43539  55.1891 164.3049 0097789 236.0421 126.0632  1.00294194 27706
BEIDOU-3 M5 (C23)       
1 43581U 18062A   26026.88767741  .00000099  00000+0  00000+0 0  9998
2 43581  54.0905 187.1074 0001601 348.3479  11.6271  1.86228382 51004
BEIDOU-3 M6 (C24)       
1 43582U 18062B   26025.67662050  .00000107  00000+0  00000+0 0  9992
2 43582  54.0902 187.1375 0007364  49.3198 310.7231  1.86229285 50982
BEIDOU-3 M12 (C26)      
1 43602U 18067A   26025.07794108  .00000106  00000+0  00000+0 0  9993
2 43602  54.1847 185.8924 0009129  42.6041 317.4434  1.86227776 50457
BEIDOU-3 M11 (C25)      
1 43603U 18067B   26021.45383584  .00000084  00000+0  00000+0 0  9999
2 43603  54.1821 185.9793 0005454  38.3929 321.6147  1.86227325 50413
BEIDOU-3 M13 (C32)      
1 43622U 18072A   26025.70579816 -.00000028  00000+0  00000+0 0  9992
2 43622  56.4969  67.3641 0007764 300.9596  59.0288  1.86230964 50007
BEIDOU-3 M14 (C33)      
1 43623U 18072B   26025.57126214 -.00000027  00000+0  00000+0 0  9997
2 43623  56.4985  67.3626 0005011 323.5486  36.4822  1.86231021 49995
BEIDOU-3 M16 (C35)      
1 43647U 18078A   26026.80243525 -.00000060  00000+0  00000+0 0  9998
2 43647  54.2186 304.9448 0008053  25.2828 334.7927  1.86232159 49529
BEIDOU-3 M15 (C34)      
1 43648U 18078B   26023.17305674 -.00000049  00000+0  00000+0 0  9997
2 43648  54.2184 305.0728 0004674  25.9712 334.0960  1.86232360 49473
BEIDOU-3 G1 (C59)       
1 43683U 18085A   26027.24038231 -.00000270  00000+0  00000+0 0  9994
2 43683   2.7190 101.5536 0001467  64.9558 186.5507  1.00274581 26649
BEIDOU-3 M17 (C36)      
1 43706U 18093A   26026.67431190  .00000101  00000+0  00000+0 0  9998
2 43706  54.1741 187.0963 0006125 303.2576 137.4729  1.86228099 48907
BEIDOU-3 M18 (C37)      
1 43707U 18093B   26026.95270532  .00000098  00000+0  00000+0 0  9996
2 43707  54.1751 187.0789 0005944 351.7862   8.1826  1.86226304 48908
BEIDOU-2 G8 (C01)       
1 44231U 19027A   26027.24133566 -.00000239  00000+0  00000+0 0  9993
2 44231   1.7744  74.7961 0008961 261.3272  21.8036  1.00271832 24662
BEIDOU-3 IGSO-2 (C39)   
1 44337U 19035A   26025.82268641 -.00000103  00000+0  00000+0 0  9994
2 44337  55.2339 160.1151 0038263 203.8587 175.3184  1.00257121 24240
BEIDOU-3 M24 (C46)      
1 44542U 19061A   26025.41228704  .00000109  00000+0  00000+0 0  9997
2 44542  54.4016 187.5421 0009324  26.8379 333.1893  1.86229114 43137
BEIDOU-3 M23 (C45)      
1 44543U 19061B   26026.61113922  .00000103  00000+0  00000+0 0  9990
2 44543  54.4005 187.4700 0005660  25.2006 331.0720  1.86227162 43153
BEIDOU-3 M22 (C44)      
1 44793U 19078A   26026.86288969 -.00000060  00000+0  00000+0 0  9999
2 44793  54.0654 304.8026 0006784  29.3274 330.7469  1.86231973 42017
BEIDOU-3 M21 (C43)      
1 44794U 19078B   26027.00159731 -.00000060  00000+0  00000+0 0  9991
2 44794  54.0381 304.7619 0004898  22.6923 337.3654  1.86227654 42024
BEIDOU-3 M19 (C41)      
1 44864U 19090A   26022.43494297 -.00000013  00000+0  00000+0 0  9992
2 44864  56.4278  67.6113 0019516 287.1404  87.3753  1.86231526 41521
BEIDOU-3 M20 (C42)      
1 44865U 19090B   26027.17926580 -.00000030  00000+0  00000+0 0  9993
2 44865  56.4342  67.4877 0016931 300.0447 104.9046  1.86231118 41594
BEIDOU-3 G2 (C60)       
1 45344U 20017A   26027.15715419 -.00000131  00000+0  00000+0 0  9994
2 45344   2.5813  44.8608 0002472 262.1600 316.0019  1.00270224 21846
BEIDOU-3 G3 (C61)       
1 45807U 20040A   26027.02056676 -.00000345  00000+0  00000+0 0  9990
2 45807   2.0988  66.9484 0004494 307.4195 229.9118  1.00271855 20654
BEIDOU-3 G4 (C62)       
1 56564U 23066A   26026.39408094 -.00000100  00000+0  00000+0 0  9996
2 56564   0.7213 306.1415 0001516 216.8774 264.4347  1.00269231  9978
BEIDOU-3 M28 (C50)      
1 58654U 23207A   26026.00553359 -.00000031  00000+0  00000+0 0  9991
2 58654  55.6239  67.1017 0004096 289.3792  70.6399  1.86229601 14195
BEIDOU-3 M26 (C48)      
1 58655U 23207B   26024.19212272 -.00000023  00000+0  00000+0 0  9997
2 58655  55.6243  67.1494 0005124 274.3069  85.7031  1.86229481 14145
BEIDOU-3 M25 (C47)      
1 61186U 24168B   26025.10002280 -.00000059  00000+0  00000+0 0  9994
2 61186  54.6014 307.2172 0005022 308.1535  57.4361  1.86229845  9123
BEIDOU-3 M27 (C49)      
1 61187U 24168C   26027.19201279 -.00000064  00000+0  00000+0 0  9991
2 61187  54.5948 307.1277 0002736   0.2706 102.8543  1.86229926  6633
